SXM-7                   
1 47240U 20096A   24241.61838059 -.00000220  00000+0  00000+0 0  9990
2 47240   0.0151 121.5036 0004365   3.4278 349.8024  1.00270914   864
CMS-01                  
1 47256U 20099A   24242.88701465 -.00000182  00000+0  00000+0 0  9997
2 47256   0.0240 225.3035 0005809  34.5821 121.0082  1.00272099 13612
TURKSAT 5A              
1 47306U 21001A   24242.89493969  .00000137  00000+0  00000+0 0  9994
2 47306   0.0220 101.2799 0000250 160.8977  69.4924  1.00271780 13385
TIANTONG-1 3            
1 47321U 21003A   24242.88499920 -.00000170  00000+0  00000+0 0  9993
2 47321   2.7324 313.6001 0003791 236.7349 188.3536  1.00273284 13381
TJS-6                   
1 47613U 21010A   24242.81536185  .00000026  00000+0  00000+0 0  9992
2 47613   0.2675 268.3598 0003754 298.1027 244.0474  1.00273762 13223
SBIRS GEO-5 (USA 315)   
1 48618U 21042A   24242.89632657  .00000107  00000+0  00000+0 0  9992
2 48618   6.0338 325.8022 0001757 215.9422 140.3939  1.00272703 12178
FENGYUN 4B              
1 48808U 21047A   24243.52385738 -.00000347  00000+0  00000+0 0  9991
2 48808   0.1748  79.7593 0005337  40.0373 152.6460  1.00269784 11985
SXM-8                   
1 48838U 21049A   24241.61838059 -.00000220  00000+0  00000+0 0  9993
2 48838   0.0172  94.9562 0006109 301.0419  78.7672  1.00269156 12002
TIANLIAN 1-05           
1 49011U 21063A   24241.56712118  .00000093  00000+0  00000+0 0  9991
2 49011   0.1295 300.0265 0003461 243.4863  14.6906  1.00273967 11489
STAR ONE D2             
1 49055U 21069A   24240.90609612 -.00000278  00000+0  00000+0 0  9992
2 49055   0.0355 117.6320 0002724  46.5968  68.5026  1.00269860 11338
EUTELSAT QUANTUM        
1 49056U 21069B   24243.07516023  .00000109  00000+0  00000+0 0  9999
2 49056   0.0490 295.5908 0001881 231.6393 246.2682  1.00270084 11343
ZHONGXING-2E            
1 49062U 21071A   24242.66207878 -.00000307  00000+0  00000+0 0  9999
2 49062   0.0445 290.8877 0001342 298.0123  85.8012  1.00268208 11454
TJS-7                   
1 49115U 21077A   24243.22251494 -.00000141  00000+0  00000+0 0  9996
2 49115   0.3421 271.3888 0003097 242.7787 165.3449  1.00275823 11232
CHINASAT 9B             
1 49125U 21080A   24243.44421365 -.00000330  00000+0  00000+0 0  9991
2 49125   0.0118 118.8841 0003185  62.3683  59.1568  1.00274618 11059
SHIJIAN-21 (SJ-21)      
1 49330U 21094A   24242.80901958 -.00000247  00000+0  00000+0 0  9991
2 49330   9.9477  44.7090 0078416  35.6126 336.4542  1.00291656 10682
SES-17                  
1 49332U 21095A   24241.90810378 -.00000287  00000+0  00000+0 0  9993
2 49332   0.0173 103.1075 0000968  68.9344  65.3599  1.00269089 11259
SYRACUSE 4A             
1 49333U 21095B   24242.87054047  .00000118  00000+0  00000+0 0  9996
2 49333   0.0241 133.6667 0001508  18.9720 184.8095  1.00269096 11374
QZS-1R                  
1 49336U 21096A   24243.54462083 -.00000289  00000+0  00000+0 0  9998
2 49336  36.0958  89.3990 0742071 269.4432 309.5781  1.00297268 10422
ZHONGXING-1D            
1 49505U 21114A   24242.87722069 -.00000353  00000+0  00000+0 0  9997
2 49505   0.0201 173.5548 0002024  86.1249 164.8429  1.00269933 10243
STPSAT-6                
1 49817U 21118A   24242.90076528 -.00000063  00000+0  00000+0 0  9991
2 49817   0.0161 136.8677 0000774 115.5239 298.8000  1.00272628  9993
LDPE-1                  
1 49818U 21118B   24242.68102574 -.00000123  00000+0  00000+0 0  9995
2 49818   2.4622  87.0682 0000834 211.5184 147.5634  1.02087583 10045
EXPRESS AMU-7           
1 50001U 21123A   24240.66283500 -.00000256  00000+0  00000+0 0  9999
2 50001   0.0228 238.8148 0000417 227.9346 253.2460  1.00273789  9940
EXPRESS AMU-3           
1 50002U 21123B   24242.77370519 -.00000338  00000+0  00000+0 0  9992
2 50002   0.0208 232.1791 0000604 184.0161 303.7983  1.00273031  9925
TIANLIAN 2-02           
1 50005U 21124A   24242.88538747 -.00000031  00000+0  00000+0 0  9997
2 50005   0.4850 273.2819 0001741 295.9814 258.9859  1.00272348 10039
TURKSAT 5B              
1 50212U 21126A   24241.21577196  .00000131  00000+0  00000+0 0  9996
2 50212   0.0692 337.8964 0001680 340.8970 137.8129  1.00272192  9706
INMARSAT 6-F1           
1 50319U 21128A   24242.36726655 -.00000188  00000+0  00000+0 0  9992
2 50319   0.0279 114.7234 0000190 158.3642 280.9410  1.00268602  9670
SHIYAN 12 01 (SY-12 01) 
1 50321U 21129A   24242.81345047 -.00000015  00000+0  00000+0 0  9997
2 50321   1.9707  89.6581 0002979 109.3602 241.5194  1.00435471  9912
SHIYAN 12 02 (SY-12 02) 
1 50322U 21129B   24242.94503295 -.00000114  00000+0  00000+0 0  9993
2 50322   1.9709  89.6696 0002856 150.2789 159.6627  1.00064779  9916
TJS-9                   
1 50574U 21135A   24243.53738144 -.00000315  00000+0  00000+0 0  9991
2 50574   0.1062 278.9352 0000683 166.0313 224.8271  1.00277297  9881
GOES 18                 
1 51850U 22021A   24242.46628927  .00000081  00000+0  00000+0 0  9991
2 51850   0.0024 140.4388 0000694  75.3592 153.2137  1.00270281    19
ZHONGXING-6D            
1 52255U 22038A   24242.71248363 -.00000370  00000+0  00000+0 0  9991
2 52255   0.0283 224.1253 0001820 350.9074 144.9432  1.00271370  8839
NILESAT 301             
1 52817U 22061A   24243.35072019 -.00000075  00000+0  00000+0 0  9997
2 52817   0.0550 342.3352 0001910 157.5916 318.3358  1.00273145  8150
CMS-02 (GSAT 24)        
1 52903U 22067A   24242.88701463 -.00000182  00000+0  00000+0 0  9997
2 52903   0.1018 267.1454 0006565 199.0679 274.7061  1.00272896  8025
MEASAT 3D               
1 52904U 22067B   24242.85327190 -.00000258  00000+0  00000+0 0  9990
2 52904   0.0148 312.3703 0001592 282.3515 142.5090  1.00269155  8061
SES-22                  
1 52933U 22071A   24242.68067823  .00000088  00000+0  00000+0 0  9992
2 52933   0.0488 284.3605 0001924 298.2741 221.7503  1.00272954   922
WFOV (USA 332)          
1 52940U 22073A   24242.87513556 -.00000380  00000+0  00000+0 0  9998
2 52940   2.0123  87.1885 0001501  19.5747 306.1378  1.00271786  7789
TIANLIAN 2-03           
1 53100U 22078A   24242.80284035  .00000055  00000+0  00000+0 0  9990
2 53100   1.0421 278.4848 0001780 234.8001 124.7620  1.00273357  7977
SBIRS GEO-6 (USA 336)   
1 53355U 22092A   24242.66438628 -.00000305  00000+0  00000+0 0  9990
2 53355   4.4261 311.3427 0001923 213.5639 191.6020  1.00271433  7653
EUTELSAT KONNECT VHTS   
1 53765U 22110A   24242.88284453  .00000000  00000+0  00000+0 0  9996
2 53765   0.0487  97.6499 0002577  51.7145 149.7114  1.00268757   312
ZHONGXING-1E            
1 53813U 22112A   24242.88479669 -.00000167  00000+0  00000+0 0  9992
2 53813   0.0578 295.0430 0001205 308.3634 135.0909  1.00272821  7265
SES-20                  
1 53960U 22123A   24240.89665192 -.00000115  00000+0  00000+0 0  9997
2 53960   0.0096 175.2865 0001745 295.1249  85.8905  1.00272976  6941
SES-21                  
1 53961U 22123B   24241.52534045  .00000055  00000+0  00000+0 0  9993
2 53961   0.0200  52.7077 0001107  95.3667 247.2736  1.00270745   626
GALAXY 33 (G-33)        
1 54026U 22128A   24241.68041316  .00000064  00000+0  00000+0 0  9992
2 54026   0.0178 120.2296 0001713  49.4189 279.6752  1.00273026  7156
GALAXY 34 (G-34)        
1 54027U 22128B   24243.37896733  .00000042  00000+0  00000+0 0  9998
2 54027   0.0152 114.4550 0001540  40.7001 191.3277  1.00272495  7197
ANGOSAT 2               
1 54033U 22131A   24241.22688306  .00000121  00000+0  00000+0 0  9994
2 54033   0.0088 162.6288 0000987 127.9795 150.9999  1.00272917  6883
EUTELSAT HOTBIRD 13F    
1 54048U 22134A   24242.87615128  .00000070  00000+0  00000+0 0  9990
2 54048   0.0664 295.8133 0001987  57.9024 313.2472  1.00271590  6869
LDPE-2                  
1 54219U 22144A   24242.90736819 -.00000223  00000+0  00000+0 0  9997
2 54219   3.9910  65.0097 0001047 192.6265 329.2179  0.99984991  5236
EUTELSAT HOTBIRD 13G    
1 54225U 22146A   24242.97091267  .00000070  00000+0  00000+0 0  9993
2 54225   0.0558 251.8011 0002019 295.3908 153.9550  1.00272351   902
ZHONGXING-19            
1 54230U 22148A   24243.52202032 -.00000097  00000+0  00000+0 0  9997
2 54230   0.0555 271.7964 0007640 317.1062 101.6063  1.00271384  6788
GALAXY 31 (G-31)        
1 54243U 22153A   24242.14910491 -.00000003  00000+0  00000+0 0  9996
2 54243   0.0114 123.2124 0001411  59.0085  88.2970  1.00273206   583
GALAXY 32 (G-32)        
1 54244U 22153B   24242.48928663 -.00000190  00000+0  00000+0 0  9991
2 54244   0.0259 109.9826 0000272 309.6344   3.7025  1.00269330  6559
EUTELSAT 10B            
1 54259U 22157A   24243.35410854  .00000051  00000+0  00000+0 0  9991
2 54259   0.0500  96.1146 0000234 292.5997  87.7867  1.00272171  6472
GALAXY 35 (G-35)        
1 54741U 22170A   24242.42221594 -.00000178  00000+0  00000+0 0  9991
2 54741   0.0124 120.3289 0001898  49.3490 227.3161  1.00271438  6307
GALAXY 36 (G-36)        
1 54742U 22170B   24243.47749260 -.00000203  00000+0  00000+0 0  9992
2 54742   0.0104 175.9586 0001858 327.9290 278.1463  1.00278873  6344
METEOSAT-12 (MTG-I1)    
1 54743U 22170C   24243.22092189 -.00000024  00000+0  00000+0 0  9998
2 54743   0.5838  44.7721 0001915  96.0351 277.2894  1.00271692  6399
SHIJIAN-23 (SJ-23)      
1 55131U 23002A   24242.96049132  .00000037  00000+0  00000+0 0  9998
2 55131   2.0198  86.7948 0000617 133.7315 158.4147  1.00473130  5921
USA 340                 
1 55138U 22144E   24237.38895215 -.00000211  00000+0  00000+0 0  9997
2 55138   3.9453  65.8065 0001899  93.9182 118.5807  0.99560549  5133
APSTAR-6E               
1 55239U 23005A   24243.02112065 -.00000334  00000+0  00000+0 0  9995
2 55239   0.0382 103.2995 0002354 337.8419  39.1740  1.00275264 21753
USA 342                 
1 55263U 23008A   24238.27807127  .00000129  00000+0  00000+0 0  9997
2 55263   0.0131 115.4912 0000186 336.4340   6.0309  1.00272725   777
